ONEWEB-0656             
1 55817U 23029X   25023.96694469  .00000036  00000+0  57303-4 0  9997
2 55817  87.9259  15.7279 0002108  70.5979 289.5382 13.20772705 93932
ONEWEB-0657             
1 55818U 23029Y   25023.58412447  .00000029  00000+0  41066-4 0  9991
2 55818  87.9149  46.2954 0002583  85.2855 274.8573 13.19723643 91698
ONEWEB-0658             
1 55819U 23029Z   25023.57938462  .00000058  00000+0  11289-3 0  9996
2 55819  87.9146  46.2312 0002039 106.9187 253.2169 13.19723748 91709
ONEWEB-0660             
1 55820U 23029AA  25023.97480352 -.00000077  00000+0 -24247-3 0  9993
2 55820  87.8991  30.9282 0001499 100.3137 259.8162 13.14502418 92504
ONEWEB-0661             
1 55821U 23029AB  25023.93356385 -.00000171  00000+0 -49561-3 0  9999
2 55821  87.8995  31.0055 0001426  98.0974 262.0318 13.14503545 92489
ONEWEB-0662             
1 55822U 23029AC  25023.96845657 -.00000131  00000+0 -38775-3 0  9999
2 55822  87.8993  31.0056 0001576 102.2467 257.8839 13.14501214 92537
ONEWEB-0663             
1 55823U 23029AD  25023.95447975  .00000022  00000+0  22236-4 0  9993
2 55823  87.9260  15.7885 0001605 101.1705 258.9609 13.20821065 93928
ONEWEB-0664             
1 55824U 23029AE  25023.95430866  .00000013  00000+0 -65272-6 0  9995
2 55824  87.9260  15.8059 0001377  77.4405 282.6882 13.20773139 93926
